STARLINK-30227          
1 57505U 23113L   26068.22529593  .00032605  00000+0  15711-2 0  9993
2 57505  43.0053   4.8681 0002789 225.8359 134.2260 15.18160462143769
FLOCK 4H-5              
1 66708U 25276AU  26068.63788174  .00007693  00000+0  36669-3 0  9992
2 66708  97.4248 143.9660 0000897  79.1760 280.9576 15.19385121 15319
